ONEWEB-0208             
1 48243U 21031AK  26106.80902771 -.00000128  00000+0 -37877-3 0  9994
2 48243  87.8930 301.9558 0001695  79.2272 280.9049 13.14502065240240
ONEWEB-0200             
1 48244U 21031AL  26106.77254956  .00000127  00000+0  30800-3 0  9992
2 48244  87.8925 301.9508 0001620  85.7535 274.3780 13.14501999240167
ONEWEB-0217             
1 48245U 21031AM  26106.78840694 -.00000131  00000+0 -38798-3 0  9995
2 48245  87.8932 301.9483 0001677  76.8452 283.2865 13.14501713240111
ONEWEB-0211             
1 48767U 21045A   26106.69076016  .00000021  00000+0  22554-4 0  9998
2 48767  87.8942 271.3627 0002011  75.3971 284.7383 13.16193399236355
ONEWEB-0223             
1 48768U 21045B   26106.73894838  .00000132  00000+0  31538-3 0  9998
2 48768  87.8944 271.4450 0002070  85.7706 274.3661 13.15547811236321
ONEWEB-0230             
1 48769U 21045C   26106.71042698 -.00000076  00000+0 -23535-3 0  9993
2 48769  87.8936 271.4699 0001792  99.7817 260.3516 13.15548061236586
ONEWEB-0237             
1 48770U 21045D   26106.47116340 -.00000048  00000+0 -16105-3 0  9998
2 48770  87.8938 271.5194 0002048  92.3865 267.7500 13.15547661236273
ONEWEB-0235             
1 48771U 21045E   26106.75003193  .00000181  00000+0  44718-3 0  9998
2 48771  87.8947 271.4437 0002140  87.8897 272.2478 13.15548544236300
ONEWEB-0242             
1 48772U 21045F   26106.74368978  .00000140  00000+0  33812-3 0  9991
2 48772  87.8948 271.4409 0001959  96.0871 264.0482 13.15548367236343
ONEWEB-0241             
1 48773U 21045G   26106.73102422  .00000068  00000+0  14584-3 0  9995
2 48773  87.8933 271.4686 0001947  83.4758 276.6594 13.15547470236253
ONEWEB-0243             
1 48774U 21045H   26106.68666542  .00000126  00000+0  30031-3 0  9998
2 48774  87.8938 271.4891 0002337  96.9671 263.1726 13.15548109236274
ONEWEB-0222             
1 48775U 21045J   26106.74606875  .00000183  00000+0  45176-3 0  9998
2 48775  87.8944 271.4401 0001891  91.1504 268.9843 13.15547169236329
ONEWEB-0244             
1 48776U 21045K   26106.69616425  .00000035  00000+0  58299-4 0  9992
2 48776  87.8952 271.4408 0001921  93.8256 266.3094 13.15548310236883
ONEWEB-0247             
1 48777U 21045L   26106.69300010  .00000114  00000+0  26907-3 0  9991
2 48777  87.8938 271.4826 0002590  90.2223 269.9204 13.15548195236322
ONEWEB-0245             
1 48778U 21045M   26106.68823765  .00000126  00000+0  30123-3 0  9996
2 48778  87.8949 271.4569 0001741  87.9801 272.1529 13.15547505236297
ONEWEB-0229             
1 48779U 21045N   26106.45531201  .00000129  00000+0  30861-3 0  9995
2 48779  87.8947 271.5018 0001928  96.3983 263.7367 13.15548024236291
