[{"OBJECT_NAME":"ONEWEB-0208","OBJECT_ID":"2021-031AK","EPOCH":"2026-04-16T19:24:59.994144","MEAN_MOTION":13.14502065,"ECCENTRICITY":0.0001695,"INCLINATION":87.893,"RA_OF_ASC_NODE":301.9558,"ARG_OF_PERICENTER":79.2272,"MEAN_ANOMALY":280.9049,"EPHEMERIS_TYPE":0,"CLASSIFICATION_TYPE":"U","NORAD_CAT_ID":48243,"ELEMENT_SET_NO":999,"REV_AT_EPOCH":24024,"BSTAR":-0.00037877,"MEAN_MOTION_DOT":-1.28e-06,"MEAN_MOTION_DDOT":0.0},{"OBJECT_NAME":"ONEWEB-0200","OBJECT_ID":"2021-031AL","EPOCH":"2026-04-16T18:32:28.281984","MEAN_MOTION":13.14501999,"ECCENTRICITY":0.000162,"INCLINATION":87.8925,"RA_OF_ASC_NODE":301.9508,"ARG_OF_PERICENTER":85.7535,"MEAN_ANOMALY":274.378,"EPHEMERIS_TYPE":0,"CLASSIFICATION_TYPE":"U","NORAD_CAT_ID":48244,"ELEMENT_SET_NO":999,"REV_AT_EPOCH":24016,"BSTAR":0.000308,"MEAN_MOTION_DOT":1.27e-06,"MEAN_MOTION_DDOT":0.0},{"OBJECT_NAME":"ONEWEB-0217","OBJECT_ID":"2021-031AM","EPOCH":"2026-04-16T18:55:18.359616","MEAN_MOTION":13.14501713,"ECCENTRICITY":0.0001677,"INCLINATION":87.8932,"RA_OF_ASC_NODE":301.9483,"ARG_OF_PERICENTER":76.8452,"MEAN_ANOMALY":283.2865,"EPHEMERIS_TYPE":0,"CLASSIFICATION_TYPE":"U","NORAD_CAT_ID":48245,"ELEMENT_SET_NO":999,"REV_AT_EPOCH":24011,"BSTAR":-0.00038798,"MEAN_MOTION_DOT":-1.31e-06,"MEAN_MOTION_DDOT":0.0},{"OBJECT_NAME":"ONEWEB-0211","OBJECT_ID":"2021-045A","EPOCH":"2026-04-16T16:34:41.677824","MEAN_MOTION":13.16193399,"ECCENTRICITY":0.0002011,"INCLINATION":87.8942,"RA_OF_ASC_NODE":271.3627,"ARG_OF_PERICENTER":75.3971,"MEAN_ANOMALY":284.7383,"EPHEMERIS_TYPE":0,"CLASSIFICATION_TYPE":"U","NORAD_CAT_ID":48767,"ELEMENT_SET_NO":999,"REV_AT_EPOCH":23635,"BSTAR":2.2554e-05,"MEAN_MOTION_DOT":2.1e-07,"MEAN_MOTION_DDOT":0.0},{"OBJECT_NAME":"ONEWEB-0223","OBJECT_ID":"2021-045B","EPOCH":"2026-04-16T17:44:05.140032","MEAN_MOTION":13.15547811,"ECCENTRICITY":0.000207,"INCLINATION":87.8944,"RA_OF_ASC_NODE":271.445,"ARG_OF_PERICENTER":85.7706,"MEAN_ANOMALY":274.3661,"EPHEMERIS_TYPE":0,"CLASSIFICATION_TYPE":"U","NORAD_CAT_ID":48768,"ELEMENT_SET_NO":999,"REV_AT_EPOCH":23632,"BSTAR":0.00031538,"MEAN_MOTION_DOT":1.32e-06,"MEAN_MOTION_DDOT":0.0},{"OBJECT_NAME":"ONEWEB-0230","OBJECT_ID":"2021-045C","EPOCH":"2026-04-16T17:03:00.891072","MEAN_MOTION":13.15548061,"ECCENTRICITY":0.0001792,"INCLINATION":87.8936,"RA_OF_ASC_NODE":271.4699,"ARG_OF_PERICENTER":99.7817,"MEAN_ANOMALY":260.3516,"EPHEMERIS_TYPE":0,"CLASSIFICATION_TYPE":"U","NORAD_CAT_ID":48769,"ELEMENT_SET_NO":999,"REV_AT_EPOCH":23658,"BSTAR":-0.00023535,"MEAN_MOTION_DOT":-7.6e-07,"MEAN_MOTION_DDOT":0.0},{"OBJECT_NAME":"ONEWEB-0237","OBJECT_ID":"2021-045D","EPOCH":"2026-04-16T11:18:28.517760","MEAN_MOTION":13.15547661,"ECCENTRICITY":0.0002048,"INCLINATION":87.8938,"RA_OF_ASC_NODE":271.5194,"ARG_OF_PERICENTER":92.3865,"MEAN_ANOMALY":267.75,"EPHEMERIS_TYPE":0,"CLASSIFICATION_TYPE":"U","NORAD_CAT_ID":48770,"ELEMENT_SET_NO":999,"REV_AT_EPOCH":23627,"BSTAR":-0.00016105,"MEAN_MOTION_DOT":-4.8e-07,"MEAN_MOTION_DDOT":0.0},{"OBJECT_NAME":"ONEWEB-0235","OBJECT_ID":"2021-045E","EPOCH":"2026-04-16T18:00:02.758752","MEAN_MOTION":13.15548544,"ECCENTRICITY":0.000214,"INCLINATION":87.8947,"RA_OF_ASC_NODE":271.4437,"ARG_OF_PERICENTER":87.8897,"MEAN_ANOMALY":272.2478,"EPHEMERIS_TYPE":0,"CLASSIFICATION_TYPE":"U","NORAD_CAT_ID":48771,"ELEMENT_SET_NO":999,"REV_AT_EPOCH":23630,"BSTAR":0.00044718000000000004,"MEAN_MOTION_DOT":1.81e-06,"MEAN_MOTION_DDOT":0.0},{"OBJECT_NAME":"ONEWEB-0242","OBJECT_ID":"2021-045F","EPOCH":"2026-04-16T17:50:54.796992","MEAN_MOTION":13.15548367,"ECCENTRICITY":0.0001959,"INCLINATION":87.8948,"RA_OF_ASC_NODE":271.4409,"ARG_OF_PERICENTER":96.0871,"MEAN_ANOMALY":264.0482,"EPHEMERIS_TYPE":0,"CLASSIFICATION_TYPE":"U","NORAD_CAT_ID":48772,"ELEMENT_SET_NO":999,"REV_AT_EPOCH":23634,"BSTAR":0.00033811999999999997,"MEAN_MOTION_DOT":1.4e-06,"MEAN_MOTION_DDOT":0.0},{"OBJECT_NAME":"ONEWEB-0241","OBJECT_ID":"2021-045G","EPOCH":"2026-04-16T17:32:40.492608","MEAN_MOTION":13.1554747,"ECCENTRICITY":0.0001947,"INCLINATION":87.8933,"RA_OF_ASC_NODE":271.4686,"ARG_OF_PERICENTER":83.4758,"MEAN_ANOMALY":276.6594,"EPHEMERIS_TYPE":0,"CLASSIFICATION_TYPE":"U","NORAD_CAT_ID":48773,"ELEMENT_SET_NO":999,"REV_AT_EPOCH":23625,"BSTAR":0.00014584,"MEAN_MOTION_DOT":6.8e-07,"MEAN_MOTION_DDOT":0.0},{"OBJECT_NAME":"ONEWEB-0243","OBJECT_ID":"2021-045H","EPOCH":"2026-04-16T16:28:47.892288","MEAN_MOTION":13.15548109,"ECCENTRICITY":0.0002337,"INCLINATION":87.8938,"RA_OF_ASC_NODE":271.4891,"ARG_OF_PERICENTER":96.9671,"MEAN_ANOMALY":263.1726,"EPHEMERIS_TYPE":0,"CLASSIFICATION_TYPE":"U","NORAD_CAT_ID":48774,"ELEMENT_SET_NO":999,"REV_AT_EPOCH":23627,"BSTAR":0.00030031000000000003,"MEAN_MOTION_DOT":1.26e-06,"MEAN_MOTION_DDOT":0.0},{"OBJECT_NAME":"ONEWEB-0222","OBJECT_ID":"2021-045J","EPOCH":"2026-04-16T17:54:20.340000","MEAN_MOTION":13.15547169,"ECCENTRICITY":0.0001891,"INCLINATION":87.8944,"RA_OF_ASC_NODE":271.4401,"ARG_OF_PERICENTER":91.1504,"MEAN_ANOMALY":268.9843,"EPHEMERIS_TYPE":0,"CLASSIFICATION_TYPE":"U","NORAD_CAT_ID":48775,"ELEMENT_SET_NO":999,"REV_AT_EPOCH":23632,"BSTAR":0.00045176,"MEAN_MOTION_DOT":1.83e-06,"MEAN_MOTION_DDOT":0.0},{"OBJECT_NAME":"ONEWEB-0244","OBJECT_ID":"2021-045K","EPOCH":"2026-04-16T16:42:28.591200","MEAN_MOTION":13.1554831,"ECCENTRICITY":0.0001921,"INCLINATION":87.8952,"RA_OF_ASC_NODE":271.4408,"ARG_OF_PERICENTER":93.8256,"MEAN_ANOMALY":266.3094,"EPHEMERIS_TYPE":0,"CLASSIFICATION_TYPE":"U","NORAD_CAT_ID":48776,"ELEMENT_SET_NO":999,"REV_AT_EPOCH":23688,"BSTAR":5.8299000000000005e-05,"MEAN_MOTION_DOT":3.5e-07,"MEAN_MOTION_DDOT":0.0},{"OBJECT_NAME":"ONEWEB-0247","OBJECT_ID":"2021-045L","EPOCH":"2026-04-16T16:37:55.208640","MEAN_MOTION":13.15548195,"ECCENTRICITY":0.000259,"INCLINATION":87.8938,"RA_OF_ASC_NODE":271.4826,"ARG_OF_PERICENTER":90.2223,"MEAN_ANOMALY":269.9204,"EPHEMERIS_TYPE":0,"CLASSIFICATION_TYPE":"U","NORAD_CAT_ID":48777,"ELEMENT_SET_NO":999,"REV_AT_EPOCH":23632,"BSTAR":0.00026907,"MEAN_MOTION_DOT":1.14e-06,"MEAN_MOTION_DDOT":0.0},{"OBJECT_NAME":"ONEWEB-0245","OBJECT_ID":"2021-045M","EPOCH":"2026-04-16T16:31:03.732960","MEAN_MOTION":13.15547505,"ECCENTRICITY":0.0001741,"INCLINATION":87.8949,"RA_OF_ASC_NODE":271.4569,"ARG_OF_PERICENTER":87.9801,"MEAN_ANOMALY":272.1529,"EPHEMERIS_TYPE":0,"CLASSIFICATION_TYPE":"U","NORAD_CAT_ID":48778,"ELEMENT_SET_NO":999,"REV_AT_EPOCH":23629,"BSTAR":0.00030123,"MEAN_MOTION_DOT":1.26e-06,"MEAN_MOTION_DDOT":0.0},{"OBJECT_NAME":"ONEWEB-0229","OBJECT_ID":"2021-045N","EPOCH":"2026-04-16T10:55:38.957664","MEAN_MOTION":13.15548024,"ECCENTRICITY":0.0001928,"INCLINATION":87.8947,"RA_OF_ASC_NODE":271.5018,"ARG_OF_PERICENTER":96.3983,"MEAN_ANOMALY":263.7367,"EPHEMERIS_TYPE":0,"CLASSIFICATION_TYPE":"U","NORAD_CAT_ID":48779,"ELEMENT_SET_NO":999,"REV_AT_EPOCH":23629,"BSTAR":0.00030861,"MEAN_MOTION_DOT":1.29e-06,"MEAN_MOTION_DDOT":0.0}]